LEMUR-2-ROUNDTRIPPER    
1 62711U 25009DG  26189.78335350  .00006666  00000+0  48466-3 0  9997
2 62711  97.7229 272.4344 0004392  78.6143 281.5576 15.04158991 80878
LEMUR-2-MYNAMEISJEFF    
1 62712U 25009DH  26189.78180417  .00006624  00000+0  48178-3 0  9994
2 62712  97.7284 272.8265 0003615 112.1675 247.9935 15.04151412 80873
LEMUR-2-LEIA-PHILIP     
1 63246U 25052AN  26189.65466518  .00001704  00000+0  15164-3 0  9993
2 63246  97.6816  81.2420 0004961 135.3701 224.7921 14.97380709 71886
LEMUR-2-LIA-MARTIN      
1 63248U 25052AQ  26189.65194362  .00003795  00000+0  32627-3 0  9995
2 63248  97.6868  81.7463 0005340 106.1828 253.9982 14.97991386 71896
LEMUR-2-DELOITTE-1      
1 63259U 25052BB  26189.69813140  .00002354  00000+0  20556-3 0  9991
2 63259  97.6884  82.1233 0002308  66.8273 293.3192 14.97751965 71914
LEMUR-2-EMERSONROSE     
1 63261U 25052BD  26189.65208999  .00003399  00000+0  28348-3 0  9997
2 63261  97.6876  82.6763 0002762  71.2958 288.8564 14.99250910 71957
LEMUR-2-MARACHE-FRAN    
1 63262U 25052BE  26189.94607324  .00002271  00000+0  18602-3 0  9995
2 63262  97.6855  83.3255 0004573 280.3591  79.7117 15.00289249 72027
LEMUR-2-THEFALCONER     
1 63264U 25052BG  26189.92812262  .00002392  00000+0  20994-3 0  9995
2 63264  97.6850  81.9463 0000756  23.3580 336.7677 14.97543375 71946
LEMUR-2-UNTITLED-SC     
1 63351U 25061A   26189.90564413  .00001936  00000+0  11110-3 0  9995
2 63351  97.5647 165.1118 0018551 184.5054 175.6014 15.13619371 70871
LEMUR-2-ESPERANZA       
1 63352U 25061B   26189.88142458  .00002884  00000+0  16319-3 0  9993
2 63352  97.5651 165.1863 0018234 183.8064 176.3032 15.13727556 70878
LEMUR-2-KREMPEL-BRO2    
1 63353U 25061C   26189.90216715  .00002021  00000+0  11407-3 0  9991
2 63353  97.5699 165.7681 0019338 176.4682 183.6690 15.14150560 70894
LEMUR-2-THERMORAPTOR    
1 63354U 25061D   26189.88307153  .00002504  00000+0  14018-3 0  9993
2 63354  97.5706 165.8289 0019099 175.3605 184.7807 15.14233684 70897
LEMUR-2-NEUROSPICY      
1 63355U 25061E   26189.91915303  .00002107  00000+0  11823-3 0  9990
2 63355  97.5633 165.4742 0016827 178.1167 182.0131 15.14352828 70902
LEMUR-2-TILLINFINITY    
1 63356U 25061F   26189.87999242  .00002722  00000+0  14913-3 0  9996
2 63356  97.5618 165.7409 0018428 166.9103 193.2611 15.14936063 70921
LEMUR-2-KREMPEL-BRO1    
1 63357U 25061G   26189.92229627  .00002075  00000+0  11514-3 0  9991
2 63357  97.5618 165.6930 0019058 167.9566 192.2125 15.14744684 70929
LEMUR-2-LANGER2SPACE    
1 63358U 25061H   26189.88708614  .00002619  00000+0  14570-3 0  9994
2 63358  97.5622 165.4631 0016741 176.6297 183.5050 15.14437027 70903
LEMUR-2-BALTO           
1 63395U 25052BH  26189.93061923  .00003384  00000+0  27450-3 0  9997
2 63395  97.6931  83.2927 0005509 352.8014   7.3129 15.00325727 72021
LEMUR-2-KRISH           
1 64561U 25135AK  26189.87489322  .00003731  00000+0  33428-3 0  9993
2 64561  97.7762 304.6053 0001754  98.9232 261.2188 14.96414469 57168
LEMUR-2-HUBBLE-4        
1 64565U 25135AP  26189.84410532  .00000992  00000+0  99192-4 0  9998
2 64565  97.7714 303.4972 0002119 179.8758 180.2463 14.93672147 57100
LEMUR-2-SEJONG-2        
1 64586U 25135BL  26189.96472630  .00002010  00000+0  18032-3 0  9997
2 64586  97.7703 304.8407 0003378 247.1690 112.9175 14.96882583 57204
LEMUR-2-HUBBLE-5        
1 64840U 25135BT  26189.85518633  .00001272  00000+0  12403-3 0  9997
2 64840  97.7734 304.1704 0004106 262.4138  97.6616 14.94199595 57145
LEMUR-2-KARENDARRELL    
1 64841U 25135BU  26189.86116779  .00004672  00000+0  37564-3 0  9996
2 64841  97.7693 306.0385 0011750 124.4354 235.7982 15.00440878 57261
LEMUR-2-LUCILLE-ROSE    
1 65403U 25135BV  26189.56783382  .00004417  00000+0  35527-3 0  9992
2 65403  97.7715 305.7812 0013970 209.6508 150.3925 15.00436483 51849
LEMUR-2-AFFIE-WAUWIE    
1 66295U 25248C   26189.50541898  .00015242  00000+0  55604-3 0  9991
2 66295  45.3917 359.4149 0008528 217.2941 142.7357 15.28058168 37859
OTTER SDM               
1 66678U 25276N   26189.64599102  .00004244  00000+0  20018-3 0  9994
2 66678  97.4202 262.7679 0004249 285.4662  74.6103 15.20005374 33677
LEMUR-2-STAS-GORBUK     
1 66686U 25276W   26189.73157241  .00003772  00000+0  18027-3 0  9999
2 66686  97.4237 262.9047 0003436 281.4027  78.6822 15.19615471 33689
LEMUR-2-TEODOR          
1 66768U 25276DG  26189.75747150  .00004196  00000+0  19070-3 0  9996
2 66768  97.4141 263.1937 0002322  94.4026 265.7475 15.21291840 33720
LEMUR-2-LAILA           
1 66776U 25276DQ  26189.72822619  .00003860  00000+0  17456-3 0  9999
2 66776  97.4166 263.2996 0002898 104.2252 255.9306 15.21517643 33727
LEMUR-2-CELIJO-SB-PK    
1 66781U 25276DW  26189.71530559  .00004042  00000+0  32738-3 0  9996
2 66781  97.5199 259.7831 0007336  80.2189 279.9863 15.00241883 25858
